PROGRESS-MS 32          
1 65586U 25204A   25317.90231501  .00020623  00000+0  37295-3 0  9993
2 65586  51.6330 285.2246 0004162  68.1997 291.9434 15.49643762   270
CYGNUS NG-23            
1 65616U 25208A   25317.90231501  .00020623  00000+0  37295-3 0  9991
2 65616  51.6330 285.2246 0004162  68.1997 291.9434 15.49643762   229
DRAGONFLY               
1 65729U 98067XH  25317.91340128  .00216482  00000+0  22833-2 0  9997
2 65729  51.6290 282.3009 0004842 122.9570 237.1890 15.62981767  8642
1998-067XJ              
1 65730U 98067XJ  25317.29192889  .00694102  00000+0  38822-2 0  9993
2 65730  51.6252 283.3843 0011176 108.0958 252.1260 15.76803775  8579
1998-067XK              
1 65731U 98067XK  25317.31630002  .00123194  00000+0  14860-2 0  9995
2 65731  51.6323 285.8165 0005658  94.7786 265.3853 15.59844654  8544
RSP-03                  
1 65732U 98067XL  25317.93572403  .00177231  00000+0  19942-2 0  9991
2 65732  51.6294 282.4519 0006335 100.5040 259.6668 15.61445888  8651
GHS-01                  
1 65733U 98067XM  25317.13151792  .00186914  00000+0  19238-2 0  9994
2 65733  51.6307 286.0826 0005272 116.0346 244.1192 15.63707009  8534
YOTSUBA-KULOVER         
1 65941U 98067XN  25317.96205788  .00115513  00000+0  16639-2 0  9990
2 65941  51.6313 284.1258 0002600  57.7537 302.3705 15.55143251  5375
BOTAN                   
1 65942U 98067XP  25317.75448169  .00131959  00000+0  17972-2 0  9993
2 65942  51.6310 284.9908 0004843  68.6517 291.4992 15.56584571  5341
E-KAGAKU-1              
1 65943U 98067XQ  25317.64032063  .00101485  00000+0  14693-2 0  9992
2 65943  51.6330 285.7287 0004359  53.0168 307.1222 15.55063931  5325
HRC MONOBLOCK CAMERA    
1 66052U 98067XR  25317.62698839  .00056912  00000+0  94083-3 0  9997
2 66052  51.6314 286.3861 0004835  64.8507 295.2984 15.51652963  4315
HTV-X1                  
1 66174U 25241A   25317.90231501  .00020623  00000+0  37295-3 0  9998
2 66174  51.6330 285.2246 0004162  68.1997 291.9434 15.49643762  1455
