CCSDS_OMM_VERS = 2.0
CREATION_DATE  = 
ORIGINATOR     = 

OBJECT_NAME    = PROGRESS-MS 32
OBJECT_ID      = 2025-204A
CENTER_NAME    = EARTH
REF_FRAME      = TEME
TIME_SYSTEM    = UTC
MEAN_ELEMENT_THEORY = SGP/SGP4

EPOCH          = 2025-11-13T21:39:20.016864
MEAN_MOTION    = 15.49643762
ECCENTRICITY   = .00041629
INCLINATION    = 51.6330
RA_OF_ASC_NODE = 285.2246
ARG_OF_PERICENTER = 68.1997
MEAN_ANOMALY   = 291.9434

EPHEMERIS_TYPE = 0
CLASSIFICATION_TYPE = U
NORAD_CAT_ID   = 65586
ELEMENT_SET_NO = 999
REV_AT_EPOCH   = 27
BSTAR          = .37295233E-3
MEAN_MOTION_DOT = .20623E-3
MEAN_MOTION_DDOT = 0

CCSDS_OMM_VERS = 2.0
CREATION_DATE  = 
ORIGINATOR     = 

OBJECT_NAME    = CYGNUS NG-23
OBJECT_ID      = 2025-208A
CENTER_NAME    = EARTH
REF_FRAME      = TEME
TIME_SYSTEM    = UTC
MEAN_ELEMENT_THEORY = SGP/SGP4

EPOCH          = 2025-11-13T21:39:20.016864
MEAN_MOTION    = 15.49643762
ECCENTRICITY   = .00041629
INCLINATION    = 51.6330
RA_OF_ASC_NODE = 285.2246
ARG_OF_PERICENTER = 68.1997
MEAN_ANOMALY   = 291.9434

EPHEMERIS_TYPE = 0
CLASSIFICATION_TYPE = U
NORAD_CAT_ID   = 65616
ELEMENT_SET_NO = 999
REV_AT_EPOCH   = 22
BSTAR          = .37295233E-3
MEAN_MOTION_DOT = .20623E-3
MEAN_MOTION_DDOT = 0

CCSDS_OMM_VERS = 2.0
CREATION_DATE  = 
ORIGINATOR     = 

OBJECT_NAME    = DRAGONFLY
OBJECT_ID      = 1998-067XH
CENTER_NAME    = EARTH
REF_FRAME      = TEME
TIME_SYSTEM    = UTC
MEAN_ELEMENT_THEORY = SGP/SGP4

EPOCH          = 2025-11-13T21:55:17.870592
MEAN_MOTION    = 15.62981767
ECCENTRICITY   = .00048429
INCLINATION    = 51.6290
RA_OF_ASC_NODE = 282.3009
ARG_OF_PERICENTER = 122.9570
MEAN_ANOMALY   = 237.1890

EPHEMERIS_TYPE = 0
CLASSIFICATION_TYPE = U
NORAD_CAT_ID   = 65729
ELEMENT_SET_NO = 999
REV_AT_EPOCH   = 864
BSTAR          = .22832835E-2
MEAN_MOTION_DOT = .216482E-2
MEAN_MOTION_DDOT = 0

CCSDS_OMM_VERS = 2.0
CREATION_DATE  = 
ORIGINATOR     = 

OBJECT_NAME    = 1998-067XJ
OBJECT_ID      = 1998-067XJ
CENTER_NAME    = EARTH
REF_FRAME      = TEME
TIME_SYSTEM    = UTC
MEAN_ELEMENT_THEORY = SGP/SGP4

EPOCH          = 2025-11-13T07:00:22.656096
MEAN_MOTION    = 15.76803775
ECCENTRICITY   = .0011176
INCLINATION    = 51.6252
RA_OF_ASC_NODE = 283.3843
ARG_OF_PERICENTER = 108.0958
MEAN_ANOMALY   = 252.1260

EPHEMERIS_TYPE = 0
CLASSIFICATION_TYPE = U
NORAD_CAT_ID   = 65730
ELEMENT_SET_NO = 999
REV_AT_EPOCH   = 857
BSTAR          = .38822E-2
MEAN_MOTION_DOT = .694102E-2
MEAN_MOTION_DDOT = 0

CCSDS_OMM_VERS = 2.0
CREATION_DATE  = 
ORIGINATOR     = 

OBJECT_NAME    = 1998-067XK
OBJECT_ID      = 1998-067XK
CENTER_NAME    = EARTH
REF_FRAME      = TEME
TIME_SYSTEM    = UTC
MEAN_ELEMENT_THEORY = SGP/SGP4

EPOCH          = 2025-11-13T07:35:28.321728
MEAN_MOTION    = 15.59844654
ECCENTRICITY   = .0005658
INCLINATION    = 51.6323
RA_OF_ASC_NODE = 285.8165
ARG_OF_PERICENTER = 94.7786
MEAN_ANOMALY   = 265.3853

EPHEMERIS_TYPE = 0
CLASSIFICATION_TYPE = U
NORAD_CAT_ID   = 65731
ELEMENT_SET_NO = 999
REV_AT_EPOCH   = 854
BSTAR          = .1486E-2
MEAN_MOTION_DOT = .123194E-2
MEAN_MOTION_DDOT = 0

CCSDS_OMM_VERS = 2.0
CREATION_DATE  = 
ORIGINATOR     = 

OBJECT_NAME    = RSP-03
OBJECT_ID      = 1998-067XL
CENTER_NAME    = EARTH
REF_FRAME      = TEME
TIME_SYSTEM    = UTC
MEAN_ELEMENT_THEORY = SGP/SGP4

EPOCH          = 2025-11-13T22:27:26.556192
MEAN_MOTION    = 15.61445888
ECCENTRICITY   = .00063352
INCLINATION    = 51.6294
RA_OF_ASC_NODE = 282.4519
ARG_OF_PERICENTER = 100.5040
MEAN_ANOMALY   = 259.6668

EPHEMERIS_TYPE = 0
CLASSIFICATION_TYPE = U
NORAD_CAT_ID   = 65732
ELEMENT_SET_NO = 999
REV_AT_EPOCH   = 865
BSTAR          = .1994224E-2
MEAN_MOTION_DOT = .177231E-2
MEAN_MOTION_DDOT = 0

CCSDS_OMM_VERS = 2.0
CREATION_DATE  = 
ORIGINATOR     = 

OBJECT_NAME    = GHS-01
OBJECT_ID      = 1998-067XM
CENTER_NAME    = EARTH
REF_FRAME      = TEME
TIME_SYSTEM    = UTC
MEAN_ELEMENT_THEORY = SGP/SGP4

EPOCH          = 2025-11-13T03:09:23.148288
MEAN_MOTION    = 15.63707009
ECCENTRICITY   = .00052725
INCLINATION    = 51.6307
RA_OF_ASC_NODE = 286.0826
ARG_OF_PERICENTER = 116.0346
MEAN_ANOMALY   = 244.1192

EPHEMERIS_TYPE = 0
CLASSIFICATION_TYPE = U
NORAD_CAT_ID   = 65733
ELEMENT_SET_NO = 999
REV_AT_EPOCH   = 853
BSTAR          = .19237583E-2
MEAN_MOTION_DOT = .186914E-2
MEAN_MOTION_DDOT = 0

CCSDS_OMM_VERS = 2.0
CREATION_DATE  = 
ORIGINATOR     = 

OBJECT_NAME    = YOTSUBA-KULOVER
OBJECT_ID      = 1998-067XN
CENTER_NAME    = EARTH
REF_FRAME      = TEME
TIME_SYSTEM    = UTC
MEAN_ELEMENT_THEORY = SGP/SGP4

EPOCH          = 2025-11-13T23:05:21.800832
MEAN_MOTION    = 15.55143251
ECCENTRICITY   = .00026008
INCLINATION    = 51.6313
RA_OF_ASC_NODE = 284.1258
ARG_OF_PERICENTER = 57.7537
MEAN_ANOMALY   = 302.3705

EPHEMERIS_TYPE = 0
CLASSIFICATION_TYPE = U
NORAD_CAT_ID   = 65941
ELEMENT_SET_NO = 999
REV_AT_EPOCH   = 537
BSTAR          = .16639167E-2
MEAN_MOTION_DOT = .115513E-2
MEAN_MOTION_DDOT = 0

CCSDS_OMM_VERS = 2.0
CREATION_DATE  = 
ORIGINATOR     = 

OBJECT_NAME    = BOTAN
OBJECT_ID      = 1998-067XP
CENTER_NAME    = EARTH
REF_FRAME      = TEME
TIME_SYSTEM    = UTC
MEAN_ELEMENT_THEORY = SGP/SGP4

EPOCH          = 2025-11-13T18:06:27.218016
MEAN_MOTION    = 15.56584571
ECCENTRICITY   = .00048439
INCLINATION    = 51.6310
RA_OF_ASC_NODE = 284.9908
ARG_OF_PERICENTER = 68.6517
MEAN_ANOMALY   = 291.4992

EPHEMERIS_TYPE = 0
CLASSIFICATION_TYPE = U
NORAD_CAT_ID   = 65942
ELEMENT_SET_NO = 999
REV_AT_EPOCH   = 534
BSTAR          = .17971676E-2
MEAN_MOTION_DOT = .131959E-2
MEAN_MOTION_DDOT = 0

CCSDS_OMM_VERS = 2.0
CREATION_DATE  = 
ORIGINATOR     = 

OBJECT_NAME    = E-KAGAKU-1
OBJECT_ID      = 1998-067XQ
CENTER_NAME    = EARTH
REF_FRAME      = TEME
TIME_SYSTEM    = UTC
MEAN_ELEMENT_THEORY = SGP/SGP4

EPOCH          = 2025-11-13T15:22:03.702432
MEAN_MOTION    = 15.55063931
ECCENTRICITY   = .00043596
INCLINATION    = 51.6330
RA_OF_ASC_NODE = 285.7287
ARG_OF_PERICENTER = 53.0168
MEAN_ANOMALY   = 307.1222

EPHEMERIS_TYPE = 0
CLASSIFICATION_TYPE = U
NORAD_CAT_ID   = 65943
ELEMENT_SET_NO = 999
REV_AT_EPOCH   = 532
BSTAR          = .14692523E-2
MEAN_MOTION_DOT = .101485E-2
MEAN_MOTION_DDOT = 0

CCSDS_OMM_VERS = 2.0
CREATION_DATE  = 
ORIGINATOR     = 

OBJECT_NAME    = HRC MONOBLOCK CAMERA
OBJECT_ID      = 1998-067XR
CENTER_NAME    = EARTH
REF_FRAME      = TEME
TIME_SYSTEM    = UTC
MEAN_ELEMENT_THEORY = SGP/SGP4

EPOCH          = 2025-11-13T15:02:51.796896
MEAN_MOTION    = 15.51652963
ECCENTRICITY   = .0004835
INCLINATION    = 51.6314
RA_OF_ASC_NODE = 286.3861
ARG_OF_PERICENTER = 64.8507
MEAN_ANOMALY   = 295.2984

EPHEMERIS_TYPE = 0
CLASSIFICATION_TYPE = U
NORAD_CAT_ID   = 66052
ELEMENT_SET_NO = 999
REV_AT_EPOCH   = 431
BSTAR          = .94083E-3
MEAN_MOTION_DOT = .56912E-3
MEAN_MOTION_DDOT = 0

CCSDS_OMM_VERS = 2.0
CREATION_DATE  = 
ORIGINATOR     = 

OBJECT_NAME    = HTV-X1
OBJECT_ID      = 2025-241A
CENTER_NAME    = EARTH
REF_FRAME      = TEME
TIME_SYSTEM    = UTC
MEAN_ELEMENT_THEORY = SGP/SGP4

EPOCH          = 2025-11-13T21:39:20.016864
MEAN_MOTION    = 15.49643762
ECCENTRICITY   = .00041629
INCLINATION    = 51.6330
RA_OF_ASC_NODE = 285.2246
ARG_OF_PERICENTER = 68.1997
MEAN_ANOMALY   = 291.9434

EPHEMERIS_TYPE = 0
CLASSIFICATION_TYPE = U
NORAD_CAT_ID   = 66174
ELEMENT_SET_NO = 999
REV_AT_EPOCH   = 145
BSTAR          = .37295233E-3
MEAN_MOTION_DOT = .20623E-3
MEAN_MOTION_DDOT = 0

